<?xml version="1.0" encoding="UTF-8"?>
<ndm xmlns:xsi="http://www.w3.org/2001/XMLSchema-instance" xsi:noNamespaceSchemaLocation="https://sanaregistry.org/r/ndmxml_unqualified/ndmxml-2.0.0-master-2.0.xsd">
<omm id="CCSDS_OMM_VERS" version="2.0">
<header><CREATION_DATE/><ORIGINATOR/></header><body><segment><metadata><OBJECT_NAME>ORBCOMM FM24</OBJECT_NAME><OBJECT_ID>1998-053D</OBJECT_ID><CENTER_NAME>EARTH</CENTER_NAME><REF_FRAME>TEME</REF_FRAME><TIME_SYSTEM>UTC</TIME_SYSTEM><MEAN_ELEMENT_THEORY>SGP4</MEAN_ELEMENT_THEORY></metadata><data><meanElements><EPOCH>2024-09-07T11:54:42.378048</EPOCH><MEAN_MOTION>14.36324361</MEAN_MOTION><ECCENTRICITY>.0001538</ECCENTRICITY><INCLINATION>45.0072</INCLINATION><RA_OF_ASC_NODE>167.8885</RA_OF_ASC_NODE><ARG_OF_PERICENTER>294.8003</ARG_OF_PERICENTER><MEAN_ANOMALY>65.2684</MEAN_ANOMALY></meanElements><tleParameters><EPHEMERIS_TYPE>0</EPHEMERIS_TYPE><CLASSIFICATION_TYPE>U</CLASSIFICATION_TYPE><NORAD_CAT_ID>25478</NORAD_CAT_ID><ELEMENT_SET_NO>999</ELEMENT_SET_NO><REV_AT_EPOCH>35677</REV_AT_EPOCH><BSTAR>.1904E-2</BSTAR><MEAN_MOTION_DOT>.5482E-4</MEAN_MOTION_DOT><MEAN_MOTION_DDOT>0</MEAN_MOTION_DDOT></tleParameters></data></segment></body></omm>
<omm id="CCSDS_OMM_VERS" version="2.0">
<header><CREATION_DATE/><ORIGINATOR/></header><body><segment><metadata><OBJECT_NAME>ORBCOMM FM25</OBJECT_NAME><OBJECT_ID>1998-053E</OBJECT_ID><CENTER_NAME>EARTH</CENTER_NAME><REF_FRAME>TEME</REF_FRAME><TIME_SYSTEM>UTC</TIME_SYSTEM><MEAN_ELEMENT_THEORY>SGP4</MEAN_ELEMENT_THEORY></metadata><data><meanElements><EPOCH>2024-09-07T11:08:15.095904</EPOCH><MEAN_MOTION>14.36308208</MEAN_MOTION><ECCENTRICITY>.0003999</ECCENTRICITY><INCLINATION>45.0063</INCLINATION><RA_OF_ASC_NODE>166.2920</RA_OF_ASC_NODE><ARG_OF_PERICENTER>284.8958</ARG_OF_PERICENTER><MEAN_ANOMALY>75.1447</MEAN_ANOMALY></meanElements><tleParameters><EPHEMERIS_TYPE>0</EPHEMERIS_TYPE><CLASSIFICATION_TYPE>U</CLASSIFICATION_TYPE><NORAD_CAT_ID>25479</NORAD_CAT_ID><ELEMENT_SET_NO>999</ELEMENT_SET_NO><REV_AT_EPOCH>35706</REV_AT_EPOCH><BSTAR>.2107E-2</BSTAR><MEAN_MOTION_DOT>.608E-4</MEAN_MOTION_DOT><MEAN_MOTION_DDOT>0</MEAN_MOTION_DDOT></tleParameters></data></segment></body></omm>
<omm id="CCSDS_OMM_VERS" version="2.0">
<header><CREATION_DATE/><ORIGINATOR/></header><body><segment><metadata><OBJECT_NAME>ORBCOMM FM26</OBJECT_NAME><OBJECT_ID>1998-053F</OBJECT_ID><CENTER_NAME>EARTH</CENTER_NAME><REF_FRAME>TEME</REF_FRAME><TIME_SYSTEM>UTC</TIME_SYSTEM><MEAN_ELEMENT_THEORY>SGP4</MEAN_ELEMENT_THEORY></metadata><data><meanElements><EPOCH>2024-09-07T10:49:32.314944</EPOCH><MEAN_MOTION>14.35644500</MEAN_MOTION><ECCENTRICITY>.0006321</ECCENTRICITY><INCLINATION>45.0058</INCLINATION><RA_OF_ASC_NODE>161.0181</RA_OF_ASC_NODE><ARG_OF_PERICENTER>298.8073</ARG_OF_PERICENTER><MEAN_ANOMALY>61.2139</MEAN_ANOMALY></meanElements><tleParameters><EPHEMERIS_TYPE>0</EPHEMERIS_TYPE><CLASSIFICATION_TYPE>U</CLASSIFICATION_TYPE><NORAD_CAT_ID>25480</NORAD_CAT_ID><ELEMENT_SET_NO>999</ELEMENT_SET_NO><REV_AT_EPOCH>35699</REV_AT_EPOCH><BSTAR>.16209E-2</BSTAR><MEAN_MOTION_DOT>.4581E-4</MEAN_MOTION_DOT><MEAN_MOTION_DDOT>0</MEAN_MOTION_DDOT></tleParameters></data></segment></body></omm>
<omm id="CCSDS_OMM_VERS" version="2.0">
<header><CREATION_DATE/><ORIGINATOR/></header><body><segment><metadata><OBJECT_NAME>ORBCOMM FM27</OBJECT_NAME><OBJECT_ID>1998-053G</OBJECT_ID><CENTER_NAME>EARTH</CENTER_NAME><REF_FRAME>TEME</REF_FRAME><TIME_SYSTEM>UTC</TIME_SYSTEM><MEAN_ELEMENT_THEORY>SGP4</MEAN_ELEMENT_THEORY></metadata><data><meanElements><EPOCH>2024-09-07T10:52:40.015488</EPOCH><MEAN_MOTION>14.36298948</MEAN_MOTION><ECCENTRICITY>.0001247</ECCENTRICITY><INCLINATION>45.0044</INCLINATION><RA_OF_ASC_NODE>166.6027</RA_OF_ASC_NODE><ARG_OF_PERICENTER>3.1940</ARG_OF_PERICENTER><MEAN_ANOMALY>356.8915</MEAN_ANOMALY></meanElements><tleParameters><EPHEMERIS_TYPE>0</EPHEMERIS_TYPE><CLASSIFICATION_TYPE>U</CLASSIFICATION_TYPE><NORAD_CAT_ID>25481</NORAD_CAT_ID><ELEMENT_SET_NO>999</ELEMENT_SET_NO><REV_AT_EPOCH>35699</REV_AT_EPOCH><BSTAR>.20914E-2</BSTAR><MEAN_MOTION_DOT>.6032E-4</MEAN_MOTION_DOT><MEAN_MOTION_DDOT>0</MEAN_MOTION_DDOT></tleParameters></data></segment></body></omm>
<omm id="CCSDS_OMM_VERS" version="2.0">
<header><CREATION_DATE/><ORIGINATOR/></header><body><segment><metadata><OBJECT_NAME>ORBCOMM FM30</OBJECT_NAME><OBJECT_ID>1999-065A</OBJECT_ID><CENTER_NAME>EARTH</CENTER_NAME><REF_FRAME>TEME</REF_FRAME><TIME_SYSTEM>UTC</TIME_SYSTEM><MEAN_ELEMENT_THEORY>SGP4</MEAN_ELEMENT_THEORY></metadata><data><meanElements><EPOCH>2024-09-07T12:58:53.816160</EPOCH><MEAN_MOTION>14.35790463</MEAN_MOTION><ECCENTRICITY>.0004376</ECCENTRICITY><INCLINATION>45.0331</INCLINATION><RA_OF_ASC_NODE>346.2424</RA_OF_ASC_NODE><ARG_OF_PERICENTER>19.4825</ARG_OF_PERICENTER><MEAN_ANOMALY>340.6189</MEAN_ANOMALY></meanElements><tleParameters><EPHEMERIS_TYPE>0</EPHEMERIS_TYPE><CLASSIFICATION_TYPE>U</CLASSIFICATION_TYPE><NORAD_CAT_ID>25980</NORAD_CAT_ID><ELEMENT_SET_NO>999</ELEMENT_SET_NO><REV_AT_EPOCH>29433</REV_AT_EPOCH><BSTAR>.16665E-2</BSTAR><MEAN_MOTION_DOT>.4727E-4</MEAN_MOTION_DOT><MEAN_MOTION_DDOT>0</MEAN_MOTION_DDOT></tleParameters></data></segment></body></omm>
<omm id="CCSDS_OMM_VERS" version="2.0">
<header><CREATION_DATE/><ORIGINATOR/></header><body><segment><metadata><OBJECT_NAME>ORBCOMM FM31</OBJECT_NAME><OBJECT_ID>1999-065B</OBJECT_ID><CENTER_NAME>EARTH</CENTER_NAME><REF_FRAME>TEME</REF_FRAME><TIME_SYSTEM>UTC</TIME_SYSTEM><MEAN_ELEMENT_THEORY>SGP4</MEAN_ELEMENT_THEORY></metadata><data><meanElements><EPOCH>2024-09-07T13:50:25.207296</EPOCH><MEAN_MOTION>14.35773209</MEAN_MOTION><ECCENTRICITY>.0001297</ECCENTRICITY><INCLINATION>45.0240</INCLINATION><RA_OF_ASC_NODE>339.6864</RA_OF_ASC_NODE><ARG_OF_PERICENTER>48.8845</ARG_OF_PERICENTER><MEAN_ANOMALY>311.2114</MEAN_ANOMALY></meanElements><tleParameters><EPHEMERIS_TYPE>0</EPHEMERIS_TYPE><CLASSIFICATION_TYPE>U</CLASSIFICATION_TYPE><NORAD_CAT_ID>25981</NORAD_CAT_ID><ELEMENT_SET_NO>999</ELEMENT_SET_NO><REV_AT_EPOCH>29336</REV_AT_EPOCH><BSTAR>.18375E-2</BSTAR><MEAN_MOTION_DOT>.5225E-4</MEAN_MOTION_DOT><MEAN_MOTION_DDOT>0</MEAN_MOTION_DDOT></tleParameters></data></segment></body></omm>
<omm id="CCSDS_OMM_VERS" version="2.0">
<header><CREATION_DATE/><ORIGINATOR/></header><body><segment><metadata><OBJECT_NAME>ORBCOMM FM32</OBJECT_NAME><OBJECT_ID>1999-065C</OBJECT_ID><CENTER_NAME>EARTH</CENTER_NAME><REF_FRAME>TEME</REF_FRAME><TIME_SYSTEM>UTC</TIME_SYSTEM><MEAN_ELEMENT_THEORY>SGP4</MEAN_ELEMENT_THEORY></metadata><data><meanElements><EPOCH>2024-09-07T12:03:15.394464</EPOCH><MEAN_MOTION>14.34783161</MEAN_MOTION><ECCENTRICITY>.0003571</ECCENTRICITY><INCLINATION>45.0171</INCLINATION><RA_OF_ASC_NODE>354.6881</RA_OF_ASC_NODE><ARG_OF_PERICENTER>60.1155</ARG_OF_PERICENTER><MEAN_ANOMALY>300.0047</MEAN_ANOMALY></meanElements><tleParameters><EPHEMERIS_TYPE>0</EPHEMERIS_TYPE><CLASSIFICATION_TYPE>U</CLASSIFICATION_TYPE><NORAD_CAT_ID>25982</NORAD_CAT_ID><ELEMENT_SET_NO>999</ELEMENT_SET_NO><REV_AT_EPOCH>29397</REV_AT_EPOCH><BSTAR>.16258E-2</BSTAR><MEAN_MOTION_DOT>.4514E-4</MEAN_MOTION_DOT><MEAN_MOTION_DDOT>0</MEAN_MOTION_DDOT></tleParameters></data></segment></body></omm>

</ndm>
