ORBCOMM FM24            
1 25478U 98053D   24251.49632382  .00005482  00000+0  19040-2 0  9996
2 25478  45.0072 167.8885 0001538 294.8003  65.2684 14.36324361356774
ORBCOMM FM25            
1 25479U 98053E   24251.46406361  .00006080  00000+0  21070-2 0  9991
2 25479  45.0063 166.2920 0003999 284.8958  75.1447 14.36308208357061
ORBCOMM FM26            
1 25480U 98053F   24251.45106846  .00004581  00000+0  16209-2 0  9999
2 25480  45.0058 161.0181 0006321 298.8073  61.2139 14.35644500356996
ORBCOMM FM27            
1 25481U 98053G   24251.45324092  .00006032  00000+0  20914-2 0  9996
2 25481  45.0044 166.6027 0001247   3.1940 356.8915 14.36298948356991
ORBCOMM FM30            
1 25980U 99065A   24251.54090065  .00004727  00000+0  16665-2 0  9991
2 25980  45.0331 346.2424 0004376  19.4825 340.6189 14.35790463294330
ORBCOMM FM31            
1 25981U 99065B   24251.57668064  .00005225  00000+0  18375-2 0  9999
2 25981  45.0240 339.6864 0001297  48.8845 311.2114 14.35773209293364
ORBCOMM FM32            
1 25982U 99065C   24251.50226151  .00004514  00000+0  16258-2 0  9998
2 25982  45.0171 354.6881 0003571  60.1155 300.0047 14.34783161293977
